QIANFAN-49              
1 62250U 24232P   25312.10393757  .00000226  00000+0  33161-3 0  9992
2 62250  89.0044  44.7228 0012330 296.4452  63.5433 13.50972144 63166
QIANFAN-50              
1 62251U 24232Q   25312.12862494  .00000212  00000+0  30943-3 0  9994
2 62251  89.0050  44.7266 0014006 297.7743  62.1987 13.50972605 63199
QIANFAN-51              
1 62252U 24232R   25312.18623346  .00000222  00000+0  32475-3 0  9995
2 62252  89.0044  44.7167 0011522 302.1899  57.8135 13.50984667 63193
QIANFAN-52              
1 62253U 24232S   25312.14097847  .00000218  00000+0  31868-3 0  9993
2 62253  89.0040  44.5963 0013478 293.1930  66.7801 13.50971579 63275
QIANFAN-53              
1 62254U 24232T   25312.19453589  .00000202  00000+0  29435-3 0  9998
2 62254  89.0047  44.6927 0012369 294.3817  65.6043 13.50982821 63244
QIANFAN-54              
1 62255U 24232U   25311.93936418  .00000159  00000+0  22796-3 0  9991
2 62255  89.0039  44.4000 0001644  34.4045 325.7212 13.50984678 94712
QIANFAN-55              
1 62785U 25016A   25312.11380133  .00000041  00000+0  44136-4 0  9991
2 62785  88.9751 106.7835 0018992  89.2873 271.0454 13.50970029 42515
QIANFAN-56              
1 62786U 25016B   25312.13012012  .00000064  00000+0  80650-4 0  9998
2 62786  88.9725 106.6276 0017654  91.5132 268.8042 13.50978533 42563
